[{"OBJECT_NAME":"USA 340","OBJECT_ID":"2022-144E","EPOCH":"2023-09-21T16:09:59.999904","MEAN_MOTION":1.00599206,"ECCENTRICITY":0.0004278,"INCLINATION":3.1489,"RA_OF_ASC_NODE":63.4287,"ARG_OF_PERICENTER":136.8552,"MEAN_ANOMALY":332.9353,"EPHEMERIS_TYPE":0,"CLASSIFICATION_TYPE":"U","NORAD_CAT_ID":55138,"ELEMENT_SET_NO":999,"REV_AT_EPOCH":295,"BSTAR":0,"MEAN_MOTION_DOT":-2.78e-6,"MEAN_MOTION_DDOT":0},{"OBJECT_NAME":"USA 342","OBJECT_ID":"2023-008A","EPOCH":"2023-09-22T10:09:42.736320","MEAN_MOTION":1.00304159,"ECCENTRICITY":0.0003523,"INCLINATION":0.0401,"RA_OF_ASC_NODE":12.6359,"ARG_OF_PERICENTER":236.5002,"MEAN_ANOMALY":148.406,"EPHEMERIS_TYPE":0,"CLASSIFICATION_TYPE":"U","NORAD_CAT_ID":55263,"ELEMENT_SET_NO":999,"REV_AT_EPOCH":250,"BSTAR":0,"MEAN_MOTION_DOT":-2.2e-7,"MEAN_MOTION_DDOT":0},{"OBJECT_NAME":"LDPE-3A","OBJECT_ID":"2023-008B","EPOCH":"2023-09-23T13:31:42.621600","MEAN_MOTION":1.00638114,"ECCENTRICITY":0.0001865,"INCLINATION":0.5506,"RA_OF_ASC_NODE":89.2469,"ARG_OF_PERICENTER":194.3567,"MEAN_ANOMALY":344.0481,"EPHEMERIS_TYPE":0,"CLASSIFICATION_TYPE":"U","NORAD_CAT_ID":55264,"ELEMENT_SET_NO":999,"REV_AT_EPOCH":180,"BSTAR":0,"MEAN_MOTION_DOT":-5.3e-7,"MEAN_MOTION_DDOT":0},{"OBJECT_NAME":"ELEKTRO-L 4","OBJECT_ID":"2023-016A","EPOCH":"2023-09-23T12:48:38.358720","MEAN_MOTION":1.00272338,"ECCENTRICITY":0.0001498,"INCLINATION":0.0923,"RA_OF_ASC_NODE":17.9933,"ARG_OF_PERICENTER":244.2967,"MEAN_ANOMALY":97.7123,"EPHEMERIS_TYPE":0,"CLASSIFICATION_TYPE":"U","NORAD_CAT_ID":55506,"ELEMENT_SET_NO":999,"REV_AT_EPOCH":230,"BSTAR":0,"MEAN_MOTION_DOT":-6.2e-7,"MEAN_MOTION_DDOT":0},{"OBJECT_NAME":"AMAZONAS NEXUS","OBJECT_ID":"2023-017A","EPOCH":"2023-09-23T11:05:50.061408","MEAN_MOTION":1.00273701,"ECCENTRICITY":0.0002291,"INCLINATION":0.0449,"RA_OF_ASC_NODE":43.5756,"ARG_OF_PERICENTER":90.3958,"MEAN_ANOMALY":333.5312,"EPHEMERIS_TYPE":0,"CLASSIFICATION_TYPE":"U","NORAD_CAT_ID":55508,"ELEMENT_SET_NO":999,"REV_AT_EPOCH":225,"BSTAR":0,"MEAN_MOTION_DOT":-2.85e-6,"MEAN_MOTION_DDOT":0},{"OBJECT_NAME":"CHINASAT 26 (ZX 26)","OBJECT_ID":"2023-023A","EPOCH":"2023-09-23T11:59:09.278880","MEAN_MOTION":1.0027302,"ECCENTRICITY":0.0003146,"INCLINATION":0.0593,"RA_OF_ASC_NODE":81.5469,"ARG_OF_PERICENTER":35.5951,"MEAN_ANOMALY":189.8297,"EPHEMERIS_TYPE":0,"CLASSIFICATION_TYPE":"U","NORAD_CAT_ID":55686,"ELEMENT_SET_NO":999,"REV_AT_EPOCH":223,"BSTAR":0,"MEAN_MOTION_DOT":-3.56e-6,"MEAN_MOTION_DDOT":0},{"OBJECT_NAME":"LUCH-5X (OLYMP-K 2)","OBJECT_ID":"2023-031A","EPOCH":"2023-09-23T20:37:56.918784","MEAN_MOTION":1.00273685,"ECCENTRICITY":0.0001034,"INCLINATION":0.0244,"RA_OF_ASC_NODE":240.6252,"ARG_OF_PERICENTER":272.9304,"MEAN_ANOMALY":167.3462,"EPHEMERIS_TYPE":0,"CLASSIFICATION_TYPE":"U","NORAD_CAT_ID":55841,"ELEMENT_SET_NO":999,"REV_AT_EPOCH":194,"BSTAR":0,"MEAN_MOTION_DOT":5.7e-7,"MEAN_MOTION_DDOT":0},{"OBJECT_NAME":"GAOFEN 13-02","OBJECT_ID":"2023-036A","EPOCH":"2023-09-23T12:35:42.683712","MEAN_MOTION":1.00274686,"ECCENTRICITY":0.0003392,"INCLINATION":2.6277,"RA_OF_ASC_NODE":301.7485,"ARG_OF_PERICENTER":275.4099,"MEAN_ANOMALY":120.5592,"EPHEMERIS_TYPE":0,"CLASSIFICATION_TYPE":"U","NORAD_CAT_ID":55912,"ELEMENT_SET_NO":999,"REV_AT_EPOCH":209,"BSTAR":0,"MEAN_MOTION_DOT":-2.35e-6,"MEAN_MOTION_DDOT":0},{"OBJECT_NAME":"SES-18","OBJECT_ID":"2023-038A","EPOCH":"2023-09-23T16:03:15.807744","MEAN_MOTION":1.00271332,"ECCENTRICITY":0.0001883,"INCLINATION":0.0227,"RA_OF_ASC_NODE":238.2724,"ARG_OF_PERICENTER":337.0976,"MEAN_ANOMALY":284.618,"EPHEMERIS_TYPE":0,"CLASSIFICATION_TYPE":"U","NORAD_CAT_ID":55970,"ELEMENT_SET_NO":999,"REV_AT_EPOCH":211,"BSTAR":0,"MEAN_MOTION_DOT":-1.05e-6,"MEAN_MOTION_DDOT":0},{"OBJECT_NAME":"SES-19","OBJECT_ID":"2023-038B","EPOCH":"2023-09-23T13:37:44.538240","MEAN_MOTION":1.00271725,"ECCENTRICITY":0.0001519,"INCLINATION":0.0333,"RA_OF_ASC_NODE":276.2001,"ARG_OF_PERICENTER":255.2024,"MEAN_ANOMALY":260.2808,"EPHEMERIS_TYPE":0,"CLASSIFICATION_TYPE":"U","NORAD_CAT_ID":55971,"ELEMENT_SET_NO":999,"REV_AT_EPOCH":206,"BSTAR":0,"MEAN_MOTION_DOT":8.5e-7,"MEAN_MOTION_DDOT":0},{"OBJECT_NAME":"INTELSAT 40E (IS-40E)","OBJECT_ID":"2023-052A","EPOCH":"2023-09-24T05:13:44.438016","MEAN_MOTION":1.00270367,"ECCENTRICITY":0.0003052,"INCLINATION":0.0129,"RA_OF_ASC_NODE":220.0031,"ARG_OF_PERICENTER":317.6037,"MEAN_ANOMALY":172.6381,"EPHEMERIS_TYPE":0,"CLASSIFICATION_TYPE":"U","NORAD_CAT_ID":56174,"ELEMENT_SET_NO":999,"REV_AT_EPOCH":183,"BSTAR":0,"MEAN_MOTION_DOT":-1.8e-6,"MEAN_MOTION_DDOT":0},{"OBJECT_NAME":"VIASAT-3","OBJECT_ID":"2023-060A","EPOCH":"2023-09-23T13:13:32.130048","MEAN_MOTION":0.9976803,"ECCENTRICITY":0.0001908,"INCLINATION":0.0917,"RA_OF_ASC_NODE":90.834,"ARG_OF_PERICENTER":183.6263,"MEAN_ANOMALY":125.7782,"EPHEMERIS_TYPE":0,"CLASSIFICATION_TYPE":"U","NORAD_CAT_ID":56370,"ELEMENT_SET_NO":999,"REV_AT_EPOCH":143,"BSTAR":0,"MEAN_MOTION_DOT":8.2e-7,"MEAN_MOTION_DDOT":0},{"OBJECT_NAME":"ARCTURUS","OBJECT_ID":"2023-060B","EPOCH":"2023-09-23T17:29:21.190272","MEAN_MOTION":1.00270381,"ECCENTRICITY":0.0002269,"INCLINATION":0.1893,"RA_OF_ASC_NODE":88.2657,"ARG_OF_PERICENTER":154.3552,"MEAN_ANOMALY":219.0409,"EPHEMERIS_TYPE":0,"CLASSIFICATION_TYPE":"U","NORAD_CAT_ID":56371,"ELEMENT_SET_NO":999,"REV_AT_EPOCH":145,"BSTAR":0,"MEAN_MOTION_DOT":1.24e-6,"MEAN_MOTION_DDOT":0},{"OBJECT_NAME":"GS-1","OBJECT_ID":"2023-060C","EPOCH":"2023-09-22T18:44:57.108192","MEAN_MOTION":1.00492778,"ECCENTRICITY":0.0012333,"INCLINATION":0.328,"RA_OF_ASC_NODE":84.8072,"ARG_OF_PERICENTER":109.6453,"MEAN_ANOMALY":204.6371,"EPHEMERIS_TYPE":0,"CLASSIFICATION_TYPE":"U","NORAD_CAT_ID":56372,"ELEMENT_SET_NO":999,"REV_AT_EPOCH":140,"BSTAR":0,"MEAN_MOTION_DOT":-3.6e-6,"MEAN_MOTION_DDOT":0},{"OBJECT_NAME":"BEIDOU-3 G4","OBJECT_ID":"2023-066A","EPOCH":"2023-09-23T17:18:42.096384","MEAN_MOTION":1.00271877,"ECCENTRICITY":0.0006791,"INCLINATION":2.7989,"RA_OF_ASC_NODE":288.7238,"ARG_OF_PERICENTER":215.7554,"MEAN_ANOMALY":277.5427,"EPHEMERIS_TYPE":0,"CLASSIFICATION_TYPE":"U","NORAD_CAT_ID":56564,"ELEMENT_SET_NO":999,"REV_AT_EPOCH":140,"BSTAR":0,"MEAN_MOTION_DOT":-1.17e-6,"MEAN_MOTION_DDOT":0},{"OBJECT_NAME":"IRNSS-1J (NVS-01)","OBJECT_ID":"2023-076A","EPOCH":"2023-09-24T00:02:44.508192","MEAN_MOTION":1.0027722,"ECCENTRICITY":0.0006326,"INCLINATION":4.6918,"RA_OF_ASC_NODE":271.7029,"ARG_OF_PERICENTER":343.5328,"MEAN_ANOMALY":237.5237,"EPHEMERIS_TYPE":0,"CLASSIFICATION_TYPE":"U","NORAD_CAT_ID":56759,"ELEMENT_SET_NO":999,"REV_AT_EPOCH":120,"BSTAR":0,"MEAN_MOTION_DOT":-3.45e-6,"MEAN_MOTION_DDOT":0},{"OBJECT_NAME":"H2SAT (HEINRICH HERTZ)","OBJECT_ID":"2023-093A","EPOCH":"2023-09-24T01:08:54.406752","MEAN_MOTION":1.00269516,"ECCENTRICITY":8.06e-5,"INCLINATION":0.0125,"RA_OF_ASC_NODE":163.2092,"ARG_OF_PERICENTER":30.7253,"MEAN_ANOMALY":186.4307,"EPHEMERIS_TYPE":0,"CLASSIFICATION_TYPE":"U","NORAD_CAT_ID":57213,"ELEMENT_SET_NO":999,"REV_AT_EPOCH":87,"BSTAR":0,"MEAN_MOTION_DOT":-5.0e-8,"MEAN_MOTION_DDOT":0}]