USA 340                 
1 55138U 22144E   23264.67361111 -.00000278  00000+0  00000+0 0  9994
2 55138   3.1489  63.4287 0004278 136.8552 332.9353  1.00599206  2956
USA 342                 
1 55263U 23008A   23265.42341130 -.00000022  00000+0  00000+0 0  9993
2 55263   0.0401  12.6359 0003523 236.5002 148.4060  1.00304159  2508
LDPE-3A                 
1 55264U 23008B   23266.56368775 -.00000053  00000+0  00000+0 0  9998
2 55264   0.5506  89.2469 0001865 194.3567 344.0481  1.00638114  1800
ELEKTRO-L 4             
1 55506U 23016A   23266.53377730 -.00000062  00000+0  00000+0 0  9994
2 55506   0.0923  17.9933 0001498 244.2967  97.7123  1.00272338  2305
AMAZONAS NEXUS          
1 55508U 23017A   23266.46238497 -.00000285  00000+0  00000+0 0  9992
2 55508   0.0449  43.5756 0002291  90.3958 333.5312  1.00273701  2250
CHINASAT 26 (ZX 26)     
1 55686U 23023A   23266.49941295 -.00000356  00000+0  00000+0 0  9995
2 55686   0.0593  81.5469 0003146  35.5951 189.8297  1.00273020  2230
LUCH-5X (OLYMP-K 2)     
1 55841U 23031A   23266.85968656  .00000057  00000+0  00000+0 0  9994
2 55841   0.0244 240.6252 0001034 272.9304 167.3462  1.00273685  1946
GAOFEN-13 02            
1 55912U 23036A   23266.52479958 -.00000235  00000+0  00000+0 0  9993
2 55912   2.6277 301.7485 0003392 275.4099 120.5592  1.00274686  2098
SES-18                  
1 55970U 23038A   23266.66893296 -.00000105  00000+0  00000+0 0  9995
2 55970   0.0227 238.2724 0001883 337.0976 284.6180  1.00271332  2114
SES-19                  
1 55971U 23038B   23266.56787660  .00000085  00000+0  00000+0 0  9998
2 55971   0.0333 276.2001 0001519 255.2024 260.2808  1.00271725  2061
INTELSAT 40E (IS-40E)   
1 56174U 23052A   23267.21787544 -.00000180  00000+0  00000+0 0  9991
2 56174   0.0129 220.0031 0003052 317.6037 172.6381  1.00270367  1838
VIASAT-3                
1 56370U 23060A   23266.55106632  .00000082  00000+0  00000+0 0  9997
2 56370   0.0917  90.8340 0001908 183.6263 125.7782  0.99768030  1433
ARCTURUS                
1 56371U 23060B   23266.72871748  .00000124  00000+0  00000+0 0  9991
2 56371   0.1893  88.2657 0002269 154.3552 219.0409  1.00270381  1452
GS-1                    
1 56372U 23060C   23265.78121653 -.00000360  00000+0  00000+0 0  9993
2 56372   0.3280  84.8072 0012333 109.6453 204.6371  1.00492778  1403
BEIDOU-3 G4             
1 56564U 23066A   23266.72132056 -.00000117  00000+0  00000+0 0  9996
2 56564   2.7989 288.7238 0006791 215.7554 277.5427  1.00271877  1405
IRNSS-1J (NVS-01)       
1 56759U 23076A   23267.00190403 -.00000345  00000+0  00000+0 0  9998
2 56759   4.6918 271.7029 0006326 343.5328 237.5237  1.00277220  1208
H2SAT (HEINRICH HERTZ)  
1 57213U 23093A   23267.04785193 -.00000005  00000+0  00000+0 0  9996
2 57213   0.0125 163.2092 0000806  30.7253 186.4307  1.00269516   879
